{"type": "FeatureCollection", "features": [ {"type": "Feature", "properties": {"norad_id": 17070, "name": "POLAR BEAR", "group": "nnss", "lat": 27.806755286815918, "lon": -175.87078881704193, "alt_km": 985.995654687079, "timestamp": "2025-12-08T21:31:04.936353+00:00", "meta": {"OBJECT_NAME": "POLAR BEAR", "OBJECT_ID": "1986-088A", "EPOCH": "2025-12-08T14:41:47.065920", "MEAN_MOTION": 13.75249677, "ECCENTRICITY": 0.0040717, "INCLINATION": 89.6177, "RA_OF_ASC_NODE": 183.9389, "ARG_OF_PERICENTER": 131.2462, "MEAN_ANOMALY": 290.7561, "EPHEMERIS_TYPE": 0, "CLASSIFICATION_TYPE": "U", "NORAD_CAT_ID": 17070, "ELEMENT_SET_NO": 999, "REV_AT_EPOCH": 95922, "BSTAR": 0.00017092704, "MEAN_MOTION_DOT": 1.76e-06, "MEAN_MOTION_DDOT": 0}, "tle": {"line1": "1 17070U 86088A   25342.61235030  .00000176  00000+0  17093-3 0  9997", "line2": "2 17070  89.6177 183.9389 0040717 131.2462 290.7561 13.75249677959222"}}, "geometry": {"type": "Point", "coordinates": [-175.87078881704193, 27.806755286815918]}}, {"type": "Feature", "properties": {"norad_id": 18361, "name": "OSCAR 27", "group": "nnss", "lat": -13.974959354484113, "lon": 79.2216831692586, "alt_km": 1122.6669439678517, "timestamp": "2025-12-08T21:31:04.936363+00:00", "meta": {"OBJECT_NAME": "OSCAR 27", "OBJECT_ID": "1987-080A", "EPOCH": "2025-12-08T12:39:36.421632", "MEAN_MOTION": 13.44905496, "ECCENTRICITY": 0.01026167, "INCLINATION": 90.3742, "RA_OF_ASC_NODE": 79.1147, "ARG_OF_PERICENTER": 236.0045, "MEAN_ANOMALY": 123.1321, "EPHEMERIS_TYPE": 0, "CLASSIFICATION_TYPE": "U", "NORAD_CAT_ID": 18361, "ELEMENT_SET_NO": 999, "REV_AT_EPOCH": 87500, "BSTAR": 0.00031991427, "MEAN_MOTION_DOT": 2.01e-06, "MEAN_MOTION_DDOT": 0}, "tle": {"line1": "1 18361U 87080A   25342.52750488  .00000201  00000+0  31991-3 0  9995", "line2": "2 18361  90.3742  79.1147 0102616 236.0045 123.1321 13.44905496875009"}}, "geometry": {"type": "Point", "coordinates": [79.2216831692586, -13.974959354484113]}}, {"type": "Feature", "properties": {"norad_id": 18362, "name": "OSCAR 29", "group": "nnss", "lat": 4.594704364390009, "lon": 79.55688950785112, "alt_km": 1116.1558657341884, "timestamp": "2025-12-08T21:31:04.936374+00:00", "meta": {"OBJECT_NAME": "OSCAR 29", "OBJECT_ID": "1987-080B", "EPOCH": "2025-12-08T07:30:41.040864", "MEAN_MOTION": 13.44447272, "ECCENTRICITY": 0.01037513, "INCLINATION": 90.3754, "RA_OF_ASC_NODE": 79.5652, "ARG_OF_PERICENTER": 260.0358, "MEAN_ANOMALY": 160.5217, "EPHEMERIS_TYPE": 0, "CLASSIFICATION_TYPE": "U", "NORAD_CAT_ID": 18362, "ELEMENT_SET_NO": 999, "REV_AT_EPOCH": 87450, "BSTAR": 0.00028461817, "MEAN_MOTION_DOT": 1.78e-06, "MEAN_MOTION_DDOT": 0}, "tle": {"line1": "1 18362U 87080B   25342.31297501  .00000178  00000+0  28462-3 0  9997", "line2": "2 18362  90.3754  79.5652 0103751 260.0358 160.5217 13.44447272874509"}}, "geometry": {"type": "Point", "coordinates": [79.55688950785112, 4.594704364390009]}}, {"type": "Feature", "properties": {"norad_id": 19070, "name": "OSCAR 23", "group": "nnss", "lat": 9.078747659493528, "lon": 16.222155691377093, "alt_km": 1299.2870638663426, "timestamp": "2025-12-08T21:31:04.936395+00:00", "meta": {"OBJECT_NAME": "OSCAR 23", "OBJECT_ID": "1988-033A", "EPOCH": "2025-12-08T14:50:46.330656", "MEAN_MOTION": 13.2778637, "ECCENTRICITY": 0.01891788, "INCLINATION": 90.3216, "RA_OF_ASC_NODE": 16.2649, "ARG_OF_PERICENTER": 191.3924, "MEAN_ANOMALY": 289.6989, "EPHEMERIS_TYPE": 0, "CLASSIFICATION_TYPE": "U", "NORAD_CAT_ID": 19070, "ELEMENT_SET_NO": 999, "REV_AT_EPOCH": 82198, "BSTAR": 0.00022386609, "MEAN_MOTION_DOT": 1.19e-06, "MEAN_MOTION_DDOT": 0}, "tle": {"line1": "1 19070U 88033A   25342.61859179  .00000119  00000+0  22387-3 0  9996", "line2": "2 19070  90.3216  16.2649 0189178 191.3924 289.6989 13.27786370821984"}}, "geometry": {"type": "Point", "coordinates": [16.222155691377093, 9.078747659493528]}}, {"type": "Feature", "properties": {"norad_id": 19071, "name": "OSCAR 32", "group": "nnss", "lat": 64.70572717058123, "lon": -162.91271433788003, "alt_km": 1080.1693984489466, "timestamp": "2025-12-08T21:31:04.936413+00:00", "meta": {"OBJECT_NAME": "OSCAR 32", "OBJECT_ID": "1988-033B", "EPOCH": "2025-12-08T14:32:51.067968", "MEAN_MOTION": 13.27953278, "ECCENTRICITY": 0.01880198, "INCLINATION": 90.3221, "RA_OF_ASC_NODE": 16.3962, "ARG_OF_PERICENTER": 178.2728, "MEAN_ANOMALY": 351.1984, "EPHEMERIS_TYPE": 0, "CLASSIFICATION_TYPE": "U", "NORAD_CAT_ID": 19071, "ELEMENT_SET_NO": 999, "REV_AT_EPOCH": 82210, "BSTAR": 0.00020525138, "MEAN_MOTION_DOT": 1.11e-06, "MEAN_MOTION_DDOT": 0}, "tle": {"line1": "1 19071U 88033B   25342.60614662  .00000111  00000+0  20525-3 0  9996", "line2": "2 19071  90.3221  16.3962 0188019 178.2728 351.1984 13.27953278822107"}}, "geometry": {"type": "Point", "coordinates": [-162.91271433788003, 64.70572717058123]}}, {"type": "Feature", "properties": {"norad_id": 19223, "name": "NOVA 2", "group": "nnss", "lat": 23.573559523221594, "lon": 78.28275971562174, "alt_km": 1149.6637575264876, "timestamp": "2025-12-08T21:31:04.936424+00:00", "meta": {"OBJECT_NAME": "NOVA 2", "OBJECT_ID": "1988-052A", "EPOCH": "2025-12-08T12:22:43.482720", "MEAN_MOTION": 13.2293522, "ECCENTRICITY": 0.00309392, "INCLINATION": 89.9871, "RA_OF_ASC_NODE": 78.2776, "ARG_OF_PERICENTER": 28.3624, "MEAN_ANOMALY": 342.7798, "EPHEMERIS_TYPE": 0, "CLASSIFICATION_TYPE": "U", "NORAD_CAT_ID": 19223, "ELEMENT_SET_NO": 999, "REV_AT_EPOCH": 80892, "BSTAR": 0.00027271037, "MEAN_MOTION_DOT": 1.24e-06, "MEAN_MOTION_DDOT": 0}, "tle": {"line1": "1 19223U 88052A   25342.51578105  .00000124  00000+0  27271-3 0  9996", "line2": "2 19223  89.9871  78.2776 0030939  28.3624 342.7798 13.22935220808923"}}, "geometry": {"type": "Point", "coordinates": [78.28275971562174, 23.573559523221594]}}, {"type": "Feature", "properties": {"norad_id": 19419, "name": "OSCAR 25", "group": "nnss", "lat": -6.985008453714585, "lon": -159.7727694719614, "alt_km": 1078.7919725798656, "timestamp": "2025-12-08T21:31:04.936456+00:00", "meta": {"OBJECT_NAME": "OSCAR 25", "OBJECT_ID": "1988-074A", "EPOCH": "2025-12-08T15:51:37.814976", "MEAN_MOTION": 13.42622325, "ECCENTRICITY": 0.00943024, "INCLINATION": 90.035, "RA_OF_ASC_NODE": 20.2307, "ARG_OF_PERICENTER": 257.6847, "MEAN_ANOMALY": 231.482, "EPHEMERIS_TYPE": 0, "CLASSIFICATION_TYPE": "U", "NORAD_CAT_ID": 19419, "ELEMENT_SET_NO": 999, "REV_AT_EPOCH": 82585, "BSTAR": 0.00027332453, "MEAN_MOTION_DOT": 1.67e-06, "MEAN_MOTION_DDOT": 0}, "tle": {"line1": "1 19419U 88074A   25342.66085434  .00000167  00000+0  27332-3 0  9996", "line2": "2 19419  90.0350  20.2307 0094302 257.6847 231.4820 13.42622325825852"}}, "geometry": {"type": "Point", "coordinates": [-159.7727694719614, -6.985008453714585]}}, {"type": "Feature", "properties": {"norad_id": 19420, "name": "OSCAR 31", "group": "nnss", "lat": 72.13695368819326, "lon": 20.466910787727713, "alt_km": 1162.0508999105868, "timestamp": "2025-12-08T21:31:04.936472+00:00", "meta": {"OBJECT_NAME": "OSCAR 31", "OBJECT_ID": "1988-074B", "EPOCH": "2025-12-08T14:35:18.328992", "MEAN_MOTION": 13.42583722, "ECCENTRICITY": 0.00925691, "INCLINATION": 90.0367, "RA_OF_ASC_NODE": 20.5798, "ARG_OF_PERICENTER": 251.9374, "MEAN_ANOMALY": 225.5371, "EPHEMERIS_TYPE": 0, "CLASSIFICATION_TYPE": "U", "NORAD_CAT_ID": 19420, "ELEMENT_SET_NO": 999, "REV_AT_EPOCH": 82595, "BSTAR": 0.00022211833, "MEAN_MOTION_DOT": 1.37e-06, "MEAN_MOTION_DDOT": 0}, "tle": {"line1": "1 19420U 88074B   25342.60785103  .00000137  00000+0  22212-3 0  9991", "line2": "2 19420  90.0367  20.5798 0092569 251.9374 225.5371 13.42583722825957"}}, "geometry": {"type": "Point", "coordinates": [20.466910787727713, 72.13695368819326]}}]}